{
  "norad_id": 67735,
  "name": "STARLINK-36691",
  "history": [
    {
      "epoch": "2026-03-28T17:06:27.037152Z",
      "apogee_km": 466.4478171586852,
      "perigee_km": 464.5493926418867,
      "latitude_deg": -6.046421414797933e-05,
      "longitude_deg": 59.34253654840287,
      "height_km": 468.59637083105275,
      "semi_major_axis_km": 6843.635604900286,
      "eccentricity": 0.0001387,
      "inclination_deg": 97.2837,
      "raan_deg": 142.0845,
      "arg_perigee_deg": 89.2693,
      "mean_anomaly_deg": 270.8708,
      "mean_motion_rev_day": 15.3345998
    },
    {
      "epoch": "2026-03-29T02:30:15.369984Z",
      "apogee_km": 466.34408142085067,
      "perigee_km": 464.7412916382664,
      "latitude_deg": -7.180382618723244e-05,
      "longitude_deg": -81.60926005145087,
      "height_km": 469.0001433190605,
      "semi_major_axis_km": 6843.679686529558,
      "eccentricity": 0.0001171,
      "inclination_deg": 97.2853,
      "raan_deg": 142.47,
      "arg_perigee_deg": 115.6596,
      "mean_anomaly_deg": 244.4767,
      "mean_motion_rev_day": 15.33445164
    },
    {
      "epoch": "2026-03-30T01:59:48.059232Z",
      "apogee_km": 466.3639823893418,
      "perigee_km": 464.87053833464597,
      "latitude_deg": -3.953676351707852e-05,
      "longitude_deg": -73.99446795028746,
      "height_km": 468.67747697416075,
      "semi_major_axis_km": 6843.754260361994,
      "eccentricity": 0.00010911,
      "inclination_deg": 97.2844,
      "raan_deg": 143.4358,
      "arg_perigee_deg": 86.1559,
      "mean_anomaly_deg": 273.9808,
      "mean_motion_rev_day": 15.334201
    },
    {
      "epoch": "2026-03-30T14:31:32.805984Z",
      "apogee_km": 466.1507683128211,
      "perigee_km": 464.9364256276949,
      "latitude_deg": -3.0174722394768634e-05,
      "longitude_deg": 98.06883496100163,
      "height_km": 468.63895107581453,
      "semi_major_axis_km": 6843.680596970258,
      "eccentricity": 8.872e-05,
      "inclination_deg": 97.2846,
      "raan_deg": 143.9501,
      "arg_perigee_deg": 88.5575,
      "mean_anomaly_deg": 271.5769,
      "mean_motion_rev_day": 15.33444858
    },
    {
      "epoch": "2026-03-30T20:47:25.063584Z",
      "apogee_km": 466.4028874020196,
      "perigee_km": 464.6023258215191,
      "latitude_deg": -2.1153236404026355e-05,
      "longitude_deg": 4.10111958515832,
      "height_km": 468.56578517501475,
      "semi_major_axis_km": 6843.639606611769,
      "eccentricity": 0.00013155,
      "inclination_deg": 97.2835,
      "raan_deg": 144.2074,
      "arg_perigee_deg": 87.0199,
      "mean_anomaly_deg": 273.1194,
      "mean_motion_rev_day": 15.33458635
    },
    {
      "epoch": "2026-03-31T14:01:02.378784Z",
      "apogee_km": 465.77307046315946,
      "perigee_km": 465.08871367395204,
      "latitude_deg": 6.12655840631491e-05,
      "longitude_deg": 105.69524101799952,
      "height_km": 468.5922374768829,
      "semi_major_axis_km": 6843.567892068555,
      "eccentricity": 5e-05,
      "inclination_deg": 97.2847,
      "raan_deg": 144.9145,
      "arg_perigee_deg": 98.4086,
      "mean_anomaly_deg": 261.7214,
      "mean_motion_rev_day": 15.33482739
    },
    {
      "epoch": "2026-04-01T02:32:46.425696Z",
      "apogee_km": 465.9866162554308,
      "perigee_km": 464.9144998285874,
      "latitude_deg": -2.005114900055223e-05,
      "longitude_deg": -82.23802044873544,
      "height_km": 468.5221492038494,
      "semi_major_axis_km": 6843.587558042009,
      "eccentricity": 7.833e-05,
      "inclination_deg": 97.2834,
      "raan_deg": 145.4293,
      "arg_perigee_deg": 85.7972,
      "mean_anomaly_deg": 274.336,
      "mean_motion_rev_day": 15.33476129
    },
    {
      "epoch": "2026-04-02T20:49:53.677632Z",
      "apogee_km": 466.26898246147266,
      "perigee_km": 464.61557370788796,
      "latitude_deg": 5.1678339833124744e-05,
      "longitude_deg": 3.480358215222668,
      "height_km": 468.23599055392964,
      "semi_major_axis_km": 6843.5792780846805,
      "eccentricity": 0.0001208,
      "inclination_deg": 97.2858,
      "raan_deg": 147.1645,
      "arg_perigee_deg": 67.4908,
      "mean_anomaly_deg": 292.6463,
      "mean_motion_rev_day": 15.33478912
    },
    {
      "epoch": "2026-04-02T20:49:53.679360Z",
      "apogee_km": 466.2691193330593,
      "perigee_km": 464.61543683630225,
      "latitude_deg": 4.955239843317778e-05,
      "longitude_deg": 3.4804512658043127,
      "height_km": 468.2359381454189,
      "semi_major_axis_km": 6843.5792780846805,
      "eccentricity": 0.00012082,
      "inclination_deg": 97.2858,
      "raan_deg": 147.1646,
      "arg_perigee_deg": 67.4908,
      "mean_anomaly_deg": 292.6463,
      "mean_motion_rev_day": 15.33478912
    },
    {
      "epoch": "2026-04-03T17:11:29.035392Z",
      "apogee_km": 466.46659350398113,
      "perigee_km": 464.65985664456093,
      "latitude_deg": -7.163673764978692e-05,
      "longitude_deg": 58.08320176444622,
      "height_km": 468.3641001881137,
      "semi_major_axis_km": 6843.700225074271,
      "eccentricity": 0.000132,
      "inclination_deg": 97.2811,
      "raan_deg": 148.0008,
      "arg_perigee_deg": 69.9832,
      "mean_anomaly_deg": 290.1552,
      "mean_motion_rev_day": 15.33438261
    },
    {
      "epoch": "2026-04-04T16:40:59.739168Z",
      "apogee_km": 466.19983332847096,
      "perigee_km": 464.77362214361074,
      "latitude_deg": -8.624865738604663e-06,
      "longitude_deg": 65.70618417946318,
      "height_km": 468.6038174034061,
      "semi_major_axis_km": 6843.623727736041,
      "eccentricity": 0.0001042,
      "inclination_deg": 97.2839,
      "raan_deg": 148.9665,
      "arg_perigee_deg": 90.5346,
      "mean_anomaly_deg": 269.6016,
      "mean_motion_rev_day": 15.33463972
    },
    {
      "epoch": "2026-04-05T14:36:33.178176Z",
      "apogee_km": 466.4000636122637,
      "perigee_km": 464.7189779988921,
      "latitude_deg": -2.8455462596514752e-05,
      "longitude_deg": 96.81748913396406,
      "height_km": 468.706479894621,
      "semi_major_axis_km": 6843.696520805577,
      "eccentricity": 0.00012282,
      "inclination_deg": 97.2849,
      "raan_deg": 149.8676,
      "arg_perigee_deg": 92.5146,
      "mean_anomaly_deg": 267.6237,
      "mean_motion_rev_day": 15.33439506
    },
    {
      "epoch": "2026-04-05T17:44:29.368320Z",
      "apogee_km": 466.3756996985321,
      "perigee_km": 464.72910802796196,
      "latitude_deg": 6.029989796731821e-05,
      "longitude_deg": 49.83281405296981,
      "height_km": 468.69974911599377,
      "semi_major_axis_km": 6843.689403863246,
      "eccentricity": 0.0001203,
      "inclination_deg": 97.284,
      "raan_deg": 149.9957,
      "arg_perigee_deg": 92.5902,
      "mean_anomaly_deg": 267.5479,
      "mean_motion_rev_day": 15.33441898
    },
    {
      "epoch": "2026-04-06T03:08:17.576736Z",
      "apogee_km": 466.51558356619444,
      "perigee_km": 464.46755927991035,
      "latitude_deg": -1.4603486355405999e-05,
      "longitude_deg": -91.1172553825021,
      "height_km": 468.5977755379686,
      "semi_major_axis_km": 6843.628571423053,
      "eccentricity": 0.00014963,
      "inclination_deg": 97.2837,
      "raan_deg": 150.3824,
      "arg_perigee_deg": 89.8052,
      "mean_anomaly_deg": 270.3362,
      "mean_motion_rev_day": 15.33462344
    },
    {
      "epoch": "2026-04-07T04:11:46.180320Z",
      "apogee_km": 466.49282187429435,
      "perigee_km": 464.5162413271373,
      "latitude_deg": -2.857827060168515e-05,
      "longitude_deg": -106.98813112901024,
      "height_km": 468.8289723921433,
      "semi_major_axis_km": 6843.641531600715,
      "eccentricity": 0.00014441,
      "inclination_deg": 97.2811,
      "raan_deg": 151.4098,
      "arg_perigee_deg": 102.5348,
      "mean_anomaly_deg": 257.6056,
      "mean_motion_rev_day": 15.33457988
    },
    {
      "epoch": "2026-04-08T14:39:03.062304Z",
      "apogee_km": 465.6152895194464,
      "perigee_km": 465.27502661454764,
      "latitude_deg": 6.0030805092349375e-05,
      "longitude_deg": 96.19390788903803,
      "height_km": 468.4918122433515,
      "semi_major_axis_km": 6843.582158066997,
      "eccentricity": 2.486e-05,
      "inclination_deg": 97.2843,
      "raan_deg": 152.8272,
      "arg_perigee_deg": 292.7239,
      "mean_anomaly_deg": 67.3978,
      "mean_motion_rev_day": 15.33477944
    },
    {
      "epoch": "2026-04-09T17:16:30.510048Z",
      "apogee_km": 465.99145671315455,
      "perigee_km": 465.01418494674,
      "latitude_deg": 3.82579086552059e-05,
      "longitude_deg": 56.8287209787267,
      "height_km": 468.7185761012117,
      "semi_major_axis_km": 6843.639820829947,
      "eccentricity": 7.14e-05,
      "inclination_deg": 97.2864,
      "raan_deg": 153.9198,
      "arg_perigee_deg": 102.3883,
      "mean_anomaly_deg": 257.744,
      "mean_motion_rev_day": 15.33458563
    },
    {
      "epoch": "2026-04-10T04:14:17.112480Z",
      "apogee_km": 466.7991017628883,
      "perigee_km": 464.2127522279188,
      "latitude_deg": 4.781525096765983e-05,
      "longitude_deg": -107.6148904263011,
      "height_km": 468.5132315068479,
      "semi_major_axis_km": 6843.642926995403,
      "eccentricity": 0.00018896,
      "inclination_deg": 97.2813,
      "raan_deg": 154.3706,
      "arg_perigee_deg": 85.4873,
      "mean_anomaly_deg": 274.6586,
      "mean_motion_rev_day": 15.33457519
    },
    {
      "epoch": "2026-04-11T20:57:26.676288Z",
      "apogee_km": 466.1634646342254,
      "perigee_km": 464.9014919824249,
      "latitude_deg": 1.036452426125603e-06,
      "longitude_deg": 1.595479809049565,
      "height_km": 468.74397228482076,
      "semi_major_axis_km": 6843.669478308325,
      "eccentricity": 9.22e-05,
      "inclination_deg": 97.2867,
      "raan_deg": 156.0431,
      "arg_perigee_deg": 99.2039,
      "mean_anomaly_deg": 260.9308,
      "mean_motion_rev_day": 15.33448595
    }
  ]
}